satname,norad_id,inclination_deg,eccentricity,mean_motion_rev_per_day,perigee_km,apogee_km,l1,l2
STARLINK-1446,45663,53.0265,0.0005712,15.39767381,442.8982099278346,450.6950140861918,1 45663U 20035G   26001.56967977  .00030509  00000+0  76557-3 0  9998,2 45663  53.0265 317.4469 0005712  68.1151 292.0459 15.39767381309326
STARLINK-1448,45665,53.0578,0.0001235,15.06395767,546.3692493548515,548.079813653133,1 45665U 20035J   26001.28542943  .00001876  00000+0  14480-3 0  9993,2 45665  53.0578   9.2069 0001235  97.2927 262.8202 15.06395767308562
STARLINK-1451,45668,53.0561,0.0001428,15.06448645,546.0735535467584,548.0513905159714,1 45668U 20035M   26001.28912064  .00013482  00000+0  92107-3 0  9999,2 45668  53.0561   9.5097 0001428  85.0533 275.0619 15.06448645308576
STARLINK-1452,45669,53.038,0.0002741,15.34131181,461.62705024887055,465.377636937028,1 45669U 20035N   26001.15710009  .00118504  00000+0  34926-2 0  9996,2 45669  53.0380 340.7216 0002741 140.0837 220.0365 15.34131181308963
STARLINK-1453,45670,53.0552,0.0005037,15.38559178,446.9296248422643,453.8086619311125,1 45670U 20035P   26001.91668980  .00154808  00000+0  39350-2 0  9995,2 45670  53.0552 331.4835 0005037  84.2522  18.8555 15.38559178  5750
STARLINK-1454,45671,53.0557,0.0001656,15.06419255,546.0057168164876,548.2993727137145,1 45671U 20035Q   26001.44391201  .00003914  00000+0  28138-3 0  9997,2 45671  53.0557   8.4999 0001656  92.0900 268.0279 15.06419255308583
STARLINK-1456,45673,53.0553,0.0003419,15.3667199,453.6221512928323,458.29530595206506,1 45673U 20035S   26001.91668980  .00162203  00000+0  43788-2 0  9996,2 45673  53.0553   3.5105 0003419  66.4900 290.1145 15.36671990  5727
STARLINK-1457,45674,53.0521,0.0011934,15.52769012,400.54625339824634,416.74494610733564,1 45674U 20035T   26001.91668980  .00226123  00000+0  34907-2 0  9992,2 45674  53.0521 351.1300 0011934  44.8566  92.0347 15.52769012  5905
STARLINK-1458,45675,53.0556,0.0001474,15.06390576,546.2196406567036,548.261241926396,1 45675U 20035U   26001.45499017  .00000571  00000+0  57243-4 0  9992,2 45675  53.0556   8.4462 0001474  96.3455 263.7702 15.06390576308566
STARLINK-1460,45676,53.0551,0.0001459,15.06407457,546.1782983814346,548.1991084216861,1 45676U 20035V   26001.29280247  .00012815  00000+0  87745-3 0  9991,2 45676  53.0551   9.1751 0001459 100.1171 259.9982 15.06407457308534
STARLINK-1392,45677,53.055,0.0001477,15.06406274,546.1694579567302,548.2152002405464,1 45677U 20035W   26001.30385927  .00006239  00000+0  43726-3 0  9999,2 45677  53.0550   9.1263 0001477  86.3586 273.7572 15.06406274308576
STARLINK-1394,45679,53.0552,0.0002221,15.37189955,452.9059387997331,455.94096215183527,1 45679U 20035Y   26001.37896727  .00113500  00000+0  30361-2 0  9993,2 45679  53.0552 356.1031 0002221  90.7034 269.4223 15.37189955308767
STARLINK-1402,45685,53.0542,0.0008269,15.34107217,457.9161808928229,469.2310018688495,1 45685U 20035AE  26001.91668980  .00139952  00000+0  41110-2 0  9991,2 45685  53.0542 338.7384 0008269  38.6901 325.7975 15.34107217  5854
STARLINK-1404,45686,53.0544,0.000154,15.06416734,546.0937753334347,548.226766892938,1 45686U 20035AF  26001.26055484  .00009954  00000+0  68586-3 0  9994,2 45686  53.0544 359.3237 0001540  80.9064 279.2099 15.06416734308715
STARLINK-1413,45689,53.0549,0.0001373,15.06408926,546.2333545680203,548.1350477698606,1 45689U 20035AJ  26001.21263565  .00009249  00000+0  63881-3 0  9993,2 45689  53.0549 359.5340 0001373  79.8969 280.2175 15.06408926308615
STARLINK-1417,45693,53.0535,0.0005023,15.08730986,536.6016025119452,543.5516399158159,1 45693U 20035AN  26001.37573159  .00042010  00000+0  26491-2 0  9996,2 45693  53.0535 358.4641 0005023  42.1661 317.9715 15.08730986308721
STARLINK-1420,45695,53.0557,0.0001377,15.06396094,546.2699071466941,548.1771514364609,1 45695U 20035AQ  26001.20985090  .00003903  00000+0  28080-3 0  9996,2 45695  53.0557 339.5379 0001377  85.0277 275.0869 15.06396094308980
STARLINK-1422,45696,53.0548,0.0001116,15.06424425,546.3638392976873,547.9095603874921,1 45696U 20035AR  26001.41906191  .00024646  00000+0  16666-2 0  9998,2 45696  53.0548 358.6121 0001116  75.5964 284.5149 15.06424425308724
STARLINK-1351,45697,53.0553,0.0001654,15.10113909,534.7087225262285,536.9958701854621,1 45697U 20035AS  26001.30634532  .00037295  00000+0  22683-2 0  9994,2 45697  53.0553 338.8818 0001654 101.5551 258.5625 15.10113909309002
STARLINK-1398,45699,53.0465,0.0007156,15.65107043,368.0998586652995,377.761987076512,1 45699U 20035AU  26001.91668980  .00143606  00000+0  14083-2 0  9996,2 45699  53.0465 273.4310 0007156  95.4660  26.6055 15.65107043  5930
STARLINK-1400,45700,53.0563,0.0001313,15.06392636,546.3248264005524,548.1434288586679,1 45700U 20035AV  26001.36929311 -.00000449  00000+0 -11233-4 0  9991,2 45700  53.0563 338.8291 0001313 103.0533 257.0602 15.06392636309002
STARLINK-1403,45701,53.0539,0.0001314,15.06405987,546.2832203169128,548.1031970957602,1 45701U 20035AW  26001.33242395  .00004305  00000+0  30765-3 0  9992,2 45701  53.0539 338.9970 0001314  77.4486 282.6650 15.06405987308991
STARLINK-1407,45703,53.0408,0.0004839,15.47642767,420.3325043758814,426.91524855212356,1 45703U 20035AY  26001.15513508  .00107744  00000+0  20328-2 0  9995,2 45703  53.0408 281.7108 0004839 237.6011 122.4528 15.47642767309793
STARLINK-1411,45706,53.0505,0.0002399,15.50905721,412.4509152220189,415.7098211152652,1 45706U 20035BB  26001.12643085  .00081541  00000+0  13787-2 0  9996,2 45706  53.0505 308.6353 0002399 116.2876 243.8379 15.50905721309401
STARLINK-1423,45710,53.0553,0.0001215,15.06392846,546.3920514908796,548.0749165184934,1 45710U 20035BF  26001.22553520  .00000078  00000+0  24116-4 0  9992,2 45710  53.0553 339.4767 0001215 109.0583 251.0538 15.06392846308980
STARLINK-1433,45711,53.0574,0.0001337,15.06405045,546.2701787481374,548.1220128179484,1 45711U 20035BG  26001.14075983  .00006985  00000+0  48728-3 0  9993,2 45711  53.0574 339.8552 0001337 114.9736 245.1392 15.06405045308966
STARLINK-1434,45712,53.0487,0.0002448,15.19727236,504.9788907498778,508.34968946151275,1 45712U 20035BH  26001.30784301  .00058182  00000+0  26822-2 0  9999,2 45712  53.0487 330.4048 0002448  23.6536 336.4570 15.19727236309129
STARLINK-1465,45731,53.0552,0.0001263,15.06398786,546.3406066831321,548.0899506687256,1 45731U 20038B   26001.77105210  .00001273  00000+0  10433-3 0  9991,2 45731  53.0552 177.0254 0001263  96.9203 263.1930 15.06398786306106
STARLINK-1471,45735,53.0499,0.0001659,15.44072199,432.9754456909168,435.2357477845153,1 45735U 20038F   26001.68985034  .00036404  00000+0  78964-3 0  9992,2 45735  53.0499 101.7920 0001659  63.1041 297.0133 15.44072199307166
STARLINK-1474,45738,53.0313,0.0004377,15.81282089,323.87921911973353,329.7487332042656,1 45738U 20038J   26001.91668980  .00231524  00000+0  11234-2 0  9995,2 45738  53.0313  43.8896 0004377  55.4020  35.0895 15.81282089  6043
STARLINK-1480,45741,53.0541,0.0001008,15.36490265,455.80864524327626,457.1865075738806,1 45741U 20038M   26001.91668980  .00097379  00000+0  26715-2 0  9997,2 45741  53.0541 174.0333 0001008  65.9166 225.8096 15.36490265  5787
STARLINK-1500,45744,53.0377,0.0002679,15.30989092,471.02461287019105,474.69537706009396,1 45744U 20038Q   26001.84654596  .00039280  00000+0  12991-2 0  9998,2 45744  53.0377 145.3757 0002679  51.2369 308.8870 15.30989092306563
STARLINK-1504,45746,53.0254,0.0001769,15.47806465,421.941146037766,424.3474393591232,1 45746U 20038S   26001.59584773  .00093854  00000+0  17654-2 0  9999,2 45746  53.0254 104.6856 0001769  10.2497 349.8546 15.47806465307109
STARLINK-1506,45747,53.075,0.0003431,15.23778142,492.0989027840942,496.81487671123887,1 45747U 20038T   26001.81336119  .00017658  00000+0  73640-3 0  9990,2 45747  53.0750 151.1488 0003431  70.8918 289.2450 15.23778142306482
STARLINK-1464,45751,53.0545,0.0001161,15.06390323,546.4371802973465,548.0452531192659,1 45751U 20038X   26001.82082638  .00001531  00000+0  12171-3 0  9995,2 45751  53.0545 156.8030 0001161 104.8753 255.2365 15.06390323306409
STARLINK-1477,45754,53.0511,0.0005281,15.1014028,532.12056998757,539.4230404676509,1 45754U 20038AA  26001.68574823  .00059882  00000+0  36165-2 0  9994,2 45754  53.0511 156.5277 0005281 151.9419 208.1857 15.10140280306395
STARLINK-1478,45755,53.0544,0.0001249,15.17063499,513.8601376268525,515.5819735691412,1 45755U 20038AB  26001.91668980  .00479665  00000+0  22635-1 0  9990,2 45755  53.0544 156.0784 0001249  80.7632  50.5738 15.17063499  5774
STARLINK-1484,45756,53.0113,0.0003927,15.74206818,344.2483027953813,349.5301383890346,1 45756U 20038AC  26001.91668980  .00212006  00000+0  14141-2 0  9999,2 45756  53.0113  34.5440 0003927  44.0165 176.8752 15.74206818  5871
STARLINK-1493,45759,53.056,0.0001297,15.06387846,546.35058590888,548.1470309875913,1 45759U 20038AF  26001.84293415 -.00000480  00000+0 -13340-4 0  9996,2 45759  53.0560 156.6994 0001297 100.6123 259.5012 15.06387846306396
STARLINK-1494,45760,53.052,0.0002262,15.57228764,394.149378129624,397.2138536714565,1 45760U 20038AG  26001.71617782  .00068013  00000+0  91630-3 0  9992,2 45760  53.0520 121.2341 0002262 210.5442 149.5437 15.57228764306899
STARLINK-1502,45764,53.0541,0.0001376,15.06394129,546.2766213286159,548.1824822036615,1 45764U 20038AL  26001.80975715  .00001208  00000+0  99976-4 0  9994,2 45764  53.0541 156.8543 0001376  79.1253 280.9891 15.06394129306402
STARLINK-1470,45772,53.0478,0.0003786,15.22567592,495.49586623131745,500.70255228896895,1 45772U 20038AU  26001.83120733  .00037182  00000+0  15870-2 0  9997,2 45772  53.0478 123.2705 0003786 133.4955 226.6356 15.22567592306876
STARLINK-1482,45773,53.0556,0.0001412,15.06396057,546.2457817689929,548.2015036144894,1 45773U 20038AV  26001.64204031  .00001239  00000+0  10206-3 0  9994,2 45773  53.0556 137.6051 0001412  88.7096 271.4055 15.06396057306657
